[{"OBJECT_NAME":"CHUANGXIN 16B (CX-16B)","OBJECT_ID":"2022-102B","EPOCH":"2026-03-09T15:40:32.180736","MEAN_MOTION":15.37969866,"ECCENTRICITY":0.0001033,"INCLINATION":28.9915,"RA_OF_ASC_NODE":159.7576,"ARG_OF_PERICENTER":174.5964,"MEAN_ANOMALY":185.4655,"EPHEMERIS_TYPE":0,"CLASSIFICATION_TYPE":"U","NORAD_CAT_ID":53876,"ELEMENT_SET_NO":999,"REV_AT_EPOCH":19133,"BSTAR":0.00098651,"MEAN_MOTION_DOT":0.00038409,"MEAN_MOTION_DDOT":0},{"OBJECT_NAME":"LONGJIANG 3","OBJECT_ID":"2023-082A","EPOCH":"2026-03-09T21:59:58.591968","MEAN_MOTION":15.3804622,"ECCENTRICITY":0.00070713,"INCLINATION":49.1076,"RA_OF_ASC_NODE":196.4161,"ARG_OF_PERICENTER":305.004,"MEAN_ANOMALY":55.0244,"EPHEMERIS_TYPE":0,"CLASSIFICATION_TYPE":"U","NORAD_CAT_ID":56874,"ELEMENT_SET_NO":999,"REV_AT_EPOCH":15406,"BSTAR":0.00064724711,"MEAN_MOTION_DOT":0.00024377,"MEAN_MOTION_DDOT":0}]
